COSMOS 2507 (RODNIK-S *)
1 40920U 15050A   26185.29704328  .00000025  00000+0  10660-3 0  9995
2 40920  82.4914  69.0173 0009409 319.1129  40.9244 12.42927235488986
COSMOS 2508 (RODNIK-S *)
1 40921U 15050B   26185.25222690  .00000146  00000+0  98009-3 0  9996
2 40921  82.4867  67.5437 0014442 351.0225   9.0594 12.42915183488966
COSMOS 2509 (RODNIK-S *)
1 40922U 15050C   26185.27298595  .00000071  00000+0  43938-3 0  9994
2 40922  82.4875  67.6349 0015119   7.7329 352.3981 12.42884370489004
LINGQIAO VIDEO A        
1 40959U 15057B   26185.29351780  .00001304  00000+0  18964-3 0  9990
2 40959  97.6624 179.2524 0015715 209.5228 150.5098 14.77417411577936
LINGQIAO VIDEO B        
1 40960U 15057C   26185.26896360  .00000580  00000+0  87888-4 0  9994
2 40960  97.6589 180.3879 0015871 209.8043 150.2266 14.77520415577972
JILIN-1                 
1 40961U 15057D   26185.27485028  .00000997  00000+0  14407-3 0  9999
2 40961  97.6512 183.7934 0016213 202.8255 157.2238 14.78188684578131
FOX-1A (AO-85)          
1 40967U 15058D   26185.12083989  .00002883  00000+0  26143-3 0  9996
2 40967  64.7734 226.3568 0131532  50.0240 311.2334 14.91042511116099
SINOD-D 1               
1 40968U 15058E   26185.05852924  .00004654  00000+0  37120-3 0  9997
2 40968  64.7731 206.0740 0120203  46.4359 314.6659 14.96010269119187
ELEKTRO-L 2             
1 41105U 15074A   26184.93418214 -.00000108  00000+0  00000+0 0  9999
2 41105   6.7340  70.3182 0000631 256.9138 276.4845  1.00273831 38673
DAMPE                   
1 41173U 15078A   26185.29458135  .00001414  00000+0  49983-4 0  9992
2 41173  97.4555 190.8462 0012779  23.2892 336.8925 15.30830499587160
ORBCOMM FM110           
1 41182U 15081D   26184.95130184  .00000798  00000+0  20477-3 0  9999
2 41182  47.0023 282.1771 0002979 171.7506 188.3429 14.58907106560070
ORBCOMM FM112           
1 41184U 15081F   26185.05835464  .00000592  00000+0  16130-3 0  9999
2 41184  46.9971 190.4662 0004128 283.8368  76.2058 14.58923566561411
ORBCOMM FM113           
1 41185U 15081G   26185.03553732  .00000385  00000+0  11768-3 0  9995
2 41185  46.9987 190.9587 0002614 282.0666  77.9927 14.58873264561399
ORBCOMM FM108           
1 41187U 15081J   26185.13470405  .00000756  00000+0  19610-3 0  9999
2 41187  47.0046 102.0680 0003126 283.0000  77.0537 14.58896570562551
ORBCOMM FM117           
1 41188U 15081K   26185.16882879  .00000726  00000+0  18968-3 0  9997
2 41188  47.0009 100.5362 0003569 287.8149  72.2347 14.58884146562606
ORBCOMM FM116           
1 41189U 15081L   26185.28602116  .00000323  00000+0  10442-3 0  9997
2 41189  47.0003 189.7719 0001086 196.6538 163.4312 14.58899402561433
HORYU-4                 
1 41340U 16012D   26182.79199294  .04204222 -38650-5  11151-2 0  9996
2 41340  30.9791 330.1929 0008659 346.1826  13.8606 16.27112331573161
ZIYUAN 3-02 (ZY 3-02)   
1 41556U 16033A   26185.29159697  .00007673  00000+0  34475-3 0  9992
2 41556  97.3827 260.7371 0012992 224.5483 135.4709 15.21348720560582
CARTOSAT-2C             
1 41599U 16040A   26185.11939613  .00005560  00000+0  26711-3 0  9999
2 41599  97.4470 244.8641 0010124  78.4182 281.8189 15.19193846556288
LAPAN-A3                
1 41603U 16040E   26185.29117207  .00004650  00000+0  14709-3 0  9994
2 41603  97.1496 180.8762 0008773 323.0423  37.0215 15.33220634557437
GAOFEN-3                
1 41727U 16049A   26185.28971494  .00000191  00000+0  71026-4 0  9997
2 41727  98.4009 192.8176 0001700  92.9835 267.1549 14.42218163521117
CAS-2T & KS-1Q          
1 41847U 16066G   26185.13969905  .00001671  00000+0  24051-3 0  9996
2 41847  98.3816 260.6820 0342755  78.2177 285.7245 14.44749429507242
YUNHAI-1 01             
1 41857U 16068A   26185.27912771  .00000312  00000+0  13076-3 0  9999
2 41857  98.5839 196.1251 0004008  18.5791 341.5539 14.32715674504275
RESOURCESAT-2A          
1 41877U 16074A   26185.24408568  .00000269  00000+0  14266-3 0  9992
2 41877  98.7524 258.6090 0002951  51.0121 309.1319 14.21606948496726
